[{"OBJECT_NAME":"EXO-0","OBJECT_ID":"2023-174DK","EPOCH":"2026-03-09T17:03:04.419648","MEAN_MOTION":15.32821991,"ECCENTRICITY":0.00098779,"INCLINATION":97.3864,"RA_OF_ASC_NODE":148.9039,"ARG_OF_PERICENTER":157.1125,"MEAN_ANOMALY":203.0559,"EPHEMERIS_TYPE":0,"CLASSIFICATION_TYPE":"U","NORAD_CAT_ID":59175,"ELEMENT_SET_NO":999,"REV_AT_EPOCH":12979,"BSTAR":0.00036716083,"MEAN_MOTION_DOT":0.00011582,"MEAN_MOTION_DDOT":0},{"OBJECT_NAME":"STARLINK-35609","OBJECT_ID":"2025-236Q","EPOCH":"2026-03-09T13:47:15.758880","MEAN_MOTION":15.30182801,"ECCENTRICITY":0.0001396,"INCLINATION":53.1584,"RA_OF_ASC_NODE":104.64,"ARG_OF_PERICENTER":83.3589,"MEAN_ANOMALY":276.757,"EPHEMERIS_TYPE":0,"CLASSIFICATION_TYPE":"U","NORAD_CAT_ID":66100,"ELEMENT_SET_NO":999,"REV_AT_EPOCH":2286,"BSTAR":0.00095004,"MEAN_MOTION_DOT":0.00027869,"MEAN_MOTION_DDOT":0}]
