EXO-0                   
1 59175U 23174DK  26068.71046781  .00011582  00000+0  36716-3 0  9992
2 59175  97.3864 148.9039 0009878 157.1125 203.0559 15.32821991129797
STARLINK-35609          
1 66100U 25236Q   26068.57448795  .00027869  00000+0  95004-3 0  9994
2 66100  53.1584 104.6400 0001396  83.3589 276.7570 15.30182801 22862
